TITAN 4B R/B            
1 26474U 00047B   22209.46759752  .00000820  00000+0  80075-4 0  9997
2 26474  67.9936 112.4239 0050502  67.8081 292.8409 14.96954610194585
ENVISAT                 
1 27386U 02009A   22209.45524751  .00000036  00000+0  25342-4 0  9993
2 27386  98.1856 188.6450 0001390  87.8185  81.9071 14.38141807 69353
IDEFIX & ARIANE 42P R/B 
1 27422U 02021B   22209.39620445  .00000061  00000+0  40312-4 0  9990
2 27422  98.4507 154.1683 0013255 113.3041 246.9538 14.29432242 55302
AQUA                    
1 27424U 02022A   22209.49510275  .00000246  00000+0  64461-4 0  9999
2 27424  98.2484 151.0004 0001987  88.6252  35.5881 14.57341013 76162
CZ-4B R/B               
1 27432U 02024C   22209.34453748 -.00000002  00000+0  22770-4 0  9993
2 27432  99.0599 235.0288 0050760 160.2456 210.9345 14.14146744 42603
MIDORI II (ADEOS-II)    
1 27597U 02056A   22209.40537609  .00000084  00000+0  51819-4 0  9991
2 27597  98.6078 152.6673 0000284 112.4259 247.6952 14.27628008 21813
H-2A R/B                
1 27601U 02056E   22209.27868321  .00000111  00000+0  54371-4 0  9997
2 27601  98.1765 213.6032 0072860 138.7455 234.0151 14.32087416 25028
CZ-4B R/B               
1 28059U 03049C   22209.42290008  .00000095  00000+0  34741-4 0  9996
2 28059  98.5206 146.8746 0048959 303.0963  56.5537 14.52808947994765
CZ-2C R/B               
1 28222U 04012C   22209.42789029  .00001587  00000+0  92357-4 0  9999
2 28222  97.7732 191.0387 0042998 272.2217 209.4072 15.12861454  2437
SL-16 R/B               
1 28353U 04021B   22209.44762689  .00000183  00000+0  12089-3 0  9993
2 28353  71.0006 122.3033 0006992 250.3147 109.7222 14.14270695936144
CZ-4B R/B               
1 28415U 04035C   22209.38948706  .00001394  00000+0  91784-4 0  9991
2 28415  97.5139 248.9566 0048620 238.5764 121.0706 15.08248729979762
CZ-2C R/B               
1 28480U 04046B   22209.45388799  .00000050  00000+0  33417-4 0  9990
2 28480  98.0661 193.9789 0142987 100.6791 261.0528 14.25843274920280
ARIANE 5 R/B            
1 28499U 04049H   22209.36386509  .00000167  00000+0  28003-4 0  9994
2 28499  98.1016 326.4867 0090274 302.7977 123.2815 14.80461902950137
CZ-2D R/B               
1 28738U 05024B   22209.45259099  .00001764  00000+0  10033-3 0  9994
2 28738  97.3507 216.1629 0012436  42.9259 317.2941 15.14062080937952
SUZAKU (ASTRO-EII)      
1 28773U 05025A   22208.92300009  .00003001  00000+0  12597-3 0  9996
2 28773  31.3814  37.2690 0004011  53.1770 306.9246 15.21486512941194
ALOS (DAICHI)           
1 28931U 06002A   22209.47590744  .00000577  00000+0  12077-3 0  9994
2 28931  97.9382 172.8051 0001451 113.1757 246.9591 14.63240507880423
H-2A R/B                
1 28932U 06002B   22209.39390403  .00001122  00000+0  10518-3 0  9991
2 28932  98.2890 254.1118 0085353 318.3427  41.1310 14.93676102896154
AKARI (ASTRO-F)         
1 28939U 06005A   22209.45915643  .00020041  00000+0  35174-3 0  9993
2 28939  98.1944 288.1702 0068088 129.3110 231.4202 15.47959602899427
RESURS-DK 1             
1 29228U 06021A   22209.47279410  .00000529  00000+0  46135-4 0  9999
2 29228  69.9358  24.4712 0005386 324.2884  35.7916 15.03320163888546
GENESIS 1               
1 29252U 06029A   22209.49514102  .00002164  00000+0  10262-3 0  9994
2 29252  64.5225 296.2939 0057982 255.8586 103.6091 15.20976075885212
CZ-4B R/B               
1 29507U 06046C   22209.04779682  .00001012  00000+0  80456-4 0  9997
2 29507  97.7204 238.9779 0046373  93.3048 267.3483 15.01882994860968
CZ-2C R/B               
1 31114U 07010B   22209.43945125  .00000026  00000+0  30590-4 0  9994
2 31114  98.2436  19.7286 0059754 177.2493 182.9024 14.19439353792376
COSMO-SKYMED 1          
1 31598U 07023A   22209.58325814 -.00000685  00000+0 -79503-4 0  9997
2 31598  97.8886  32.6533 0001349 101.4527 258.6933 14.82143080819053
GENESIS 2               
1 31789U 07028A   22209.46556157  .00001864  00000+0  93440-4 0  9991
2 31789  64.4975 339.6720 0051841 308.0051  51.6398 15.19855537832139
COSMOS 2428             
1 31792U 07029A   22209.42005996  .00000169  00000+0  11732-3 0  9992
2 31792  70.9524  93.8787 0008081 323.9957  36.0618 14.12586812777630
SL-16 R/B               
1 31793U 07029B   22209.35607708 -.00000269  00000+0 -11529-3 0  9991
2 31793  70.9760  66.9369 0002576 263.4947 269.5801 14.14479830778642
KORONAS-FOTON           
1 33504U 09003A   22209.41681213  .00001545  00000+0  75353-4 0  9999
2 33504  82.4419 175.0489 0019858 125.7766 234.5317 15.17396033744170
H-2A R/B                
1 38341U 12025E   22209.31372035  .00000451  00000+0  59402-4 0  9991
2 38341  98.5011  67.2911 0053416 275.5991  83.9131 14.84790252551714
CUSAT 2 & FALCON 9 R/B  
1 39271U 13055G   22209.35270396  .00022071  00000+0  47204-3 0  9997
2 39271  80.9586 150.1177 0521693 351.3516   7.8939 14.64599529462756
SHIJIAN-16 (SJ-16)      
1 39358U 13057A   22209.56907712  .00000628  00000+0  74494-4 0  9993
2 39358  74.9745 151.0991 0017105  60.8772 299.4122 14.86221798475100
CZ-2C R/B               
1 39364U 13059B   22209.24918026  .00004909  00000+0  15710-3 0  9998
2 39364  97.1572 261.2025 0042173 183.6275 176.4668 15.31983714486452
SL-4 R/B                
1 39679U 14021B   22209.17613917  .00002604  00000+0  13595-3 0  9999
2 39679  51.6136 126.3036 0165045  99.9563 262.0079 15.08890111455263
ALOS-2                  
1 39766U 14029A   22209.52564492  .00000179  00000+0  30813-4 0  9994
2 39766  97.9221 306.0660 0001530  87.6780 272.4592 14.79473244441701
CZ-2C R/B               
1 40306U 14071B   22209.45104374  .00028154  00000+0  28214-3 0  9998
2 40306  97.4179 185.1913 0008723 199.7674 160.3248 15.65460989433303
SL-27 R/B               
1 40354U 14084B   22209.49610037  .00003610  00000+0  77789-4 0  9999
2 40354  74.7350 229.8035 0033432  24.7854 335.4956 15.44345385426939
YAOGAN-29               
1 41038U 15069A   22209.56457819  .00000234  00000+0  37216-4 0  9998
2 41038  98.0565 209.9469 0001319  41.4859 318.6448 14.80894584360379
ASTRO-H (HITOMI)        
1 41337U 16012A   22209.53850951  .00000682  00000+0  47363-4 0  9991
2 41337  31.0038 158.9019 0012085 134.3182 225.8446 14.99495083353291
HXMT (HUIYAN)           
1 42758U 17034A   22209.49293279  .00001899  00000+0  12597-3 0  9994
2 42758  43.0162 122.5934 0008388 186.7521 342.0525 15.10645207282382
CZ-2C R/B               
1 43521U 18054D   22209.11018318  .00002937  00000+0  15127-3 0  9990
2 43521  35.1530 105.0271 0077451  82.8640 278.0874 15.13469536225842
AEOLUS                  
1 43600U 18066A   22209.48804505  .00070271  00000+0  27293-3 0  9995
2 43600  96.6999 214.6790 0008220 101.4496 258.7700 15.86918258227631
SAOCOM 1A               
1 43641U 18076A   22209.45663852  .00002023  00000+0  26043-3 0  9998
2 43641  97.8886  35.5637 0001190  74.7223 285.4075 14.82187492205803
SAOCOM 1B               
1 46265U 20059A   22209.48781945  .00006022  00000+0  76246-3 0  9997
2 46265  97.8873  34.6628 0001435  87.2226 273.0049 14.82151023103204
TIANHE                  
1 48274U 21035A   22209.46942086  .00002274  00000+0  29820-4 0  9999
2 48274  41.4740 327.5330 0007063 301.3894 142.9909 15.61401481 71221
2022-019U               
1 51842U 22019U   22209.49136334  .00004947  00000+0  19310-3 0  9992
2 51842  97.5585 287.3663 0069116  45.7019  52.1556 15.24160601 23033
CZ-2C R/B               
1 52794U 22058K   22209.42904089  .00001275  00000+0  84151-4 0  9992
2 52794  50.1767 349.9779 0103734 262.2563  96.6600 15.10969154  8485
